{
    "links": {
        "self": "http://www.neowsapp.com/rest/v1/neo/54054534?api_key=iIulBulltgU6a56xZRHN4H3l9WmuAYTsLGpBGhQ2"
    },
    "id": "54054534",
    "neo_reference_id": "54054534",
    "name": "(2020 SQ2)",
    "designation": "2020 SQ2",
    "nasa_jpl_url": "http://ssd.jpl.nasa.gov/sbdb.cgi?sstr=54054534",
    "absolute_magnitude_h": 22.852,
    "estimated_diameter": {
        "kilometers": {
            "estimated_diameter_min": 0.0714751337,
            "estimated_diameter_max": 0.1598232577
        },
        "meters": {
            "estimated_diameter_min": 71.4751337318,
            "estimated_diameter_max": 159.8232577251
        },
        "miles": {
            "estimated_diameter_min": 0.0444125753,
            "estimated_diameter_max": 0.0993095375
        },
        "feet": {
            "estimated_diameter_min": 234.4984777526,
            "estimated_diameter_max": 524.354536875
        }
    },
    "is_potentially_hazardous_asteroid": false,
    "close_approach_data": [
        {
            "close_approach_date": "1976-10-23",
            "close_approach_date_full": "1976-Oct-23 20:19",
            "epoch_date_close_approach": 214949940000,
            "relative_velocity": {
                "kilometers_per_second": "9.5986003902",
                "kilometers_per_hour": "34554.9614047323",
                "miles_per_hour": "21471.1092128461"
            },
            "miss_distance": {
                "astronomical": "0.4353945857",
                "lunar": "169.3684938373",
                "kilometers": "65134102.630252459",
                "miles": "40472454.6417795742"
            },
            "orbiting_body": "Earth"
        },
        {
            "close_approach_date": "1993-10-08",
            "close_approach_date_full": "1993-Oct-08 04:42",
            "epoch_date_close_approach": 750055320000,
            "relative_velocity": {
                "kilometers_per_second": "9.6916796144",
                "kilometers_per_hour": "34890.0466118134",
                "miles_per_hour": "21679.3181294349"
            },
            "miss_distance": {
                "astronomical": "0.3077480269",
                "lunar": "119.7139824641",
                "kilometers": "46038449.320942703",
                "miles": "28606965.8853991814"
            },
            "orbiting_body": "Earth"
        },
        {
            "close_approach_date": "2020-10-15",
            "close_approach_date_full": "2020-Oct-15 11:21",
            "epoch_date_close_approach": 1602760860000,
            "relative_velocity": {
                "kilometers_per_second": "6.2650973861",
                "kilometers_per_hour": "22554.3505898235",
                "miles_per_hour": "14014.3963428823"
            },
            "miss_distance": {
                "astronomical": "0.1838147465",
                "lunar": "71.5039363885",
                "kilometers": "27498294.550989955",
                "miles": "17086647.915593179"
            },
            "orbiting_body": "Earth"
        },
        {
            "close_approach_date": "2037-07-04",
            "close_approach_date_full": "2037-Jul-04 12:10",
            "epoch_date_close_approach": 2130322200000,
            "relative_velocity": {
                "kilometers_per_second": "9.9916888321",
                "kilometers_per_hour": "35970.0797956393",
                "miles_per_hour": "22350.4087485738"
            },
            "miss_distance": {
                "astronomical": "0.0585642117",
                "lunar": "22.7814783513",
                "kilometers": "8761081.328549079",
                "miles": "5443883.5013281302"
            },
            "orbiting_body": "Mars"
        },
        {
            "close_approach_date": "2047-10-19",
            "close_approach_date_full": "2047-Oct-19 12:11",
            "epoch_date_close_approach": 2455099860000,
            "relative_velocity": {
                "kilometers_per_second": "5.4731268409",
                "kilometers_per_hour": "19703.2566272892",
                "miles_per_hour": "12242.8374304398"
            },
            "miss_distance": {
                "astronomical": "0.1616077599",
                "lunar": "62.8654186011",
                "kilometers": "24176176.656511413",
                "miles": "15022379.5773589794"
            },
            "orbiting_body": "Earth"
        }
    ],
    "orbital_data": {
        "orbit_id": "8",
        "orbit_determination_date": "2020-10-23 08:19:58",
        "first_observation_date": "2020-09-13",
        "last_observation_date": "2020-10-22",
        "data_arc_in_days": 39,
        "observations_used": 45,
        "orbit_uncertainty": "6",
        "minimum_orbit_intersection": ".163694",
        "jupiter_tisserand_invariant": "3.449",
        "epoch_osculation": "2459000.5",
        "eccentricity": ".4884493216478626",
        "semi_major_axis": "2.252256991304021",
        "inclination": "7.206987561261684",
        "ascending_node_longitude": "8.725890966631198",
        "orbital_period": "1234.597355626496",
        "perihelion_distance": "1.152143591724916",
        "perihelion_argument": "23.26270313754957",
        "aphelion_distance": "3.352370390883126",
        "perihelion_time": "2459143.050360833485",
        "mean_anomaly": "318.4333064815182",
        "mean_motion": ".2915930431564208",
        "equinox": "J2000",
        "orbit_class": {
            "orbit_class_type": "AMO",
            "orbit_class_description": "Near-Earth asteroid orbits similar to that of 1221 Amor",
            "orbit_class_range": "1.017 AU < q (perihelion) < 1.3 AU"
        }
    },
    "is_sentry_object": false
}